{"type": "FeatureCollection", "features": [{"type": "Feature", "geometry": {"type": "Point", "coordinates": [-69.9320763, 18.4696131]}, "properties": {"id": 1, "name": "Estación de Gasolina La Lira", "address": "Av. Lope de Vega Esq.", "phone": null, "hours": "Abierto 24 horas", "zone": "Dentro del polígono", "inside": true, "distKm": 0.28, "brand": "Independiente", "open24h": true, "maps": "https://www.google.com/maps/search/?api=1&query=18.4696131,-69.9320763", "streetview": "https://www.google.com/maps/@?api=1&map_action=pano&viewpoint=18.4696131,-69.9320763"}}, {"type": "Feature", "geometry": {"type": "Point", "coordinates": [-69.9267016, 18.4669784]}, "properties": {"id": 2, "name": "TotalEnergies La 27", "address": "Av. 27 de Febrero", "phone": "(809) 227-4300", "hours": "Abierto 24 horas", "zone": "Dentro del polígono", "inside": true, "distKm": 0.37, "brand": "TotalEnergies", "open24h": true, "maps": "https://www.google.com/maps/search/?api=1&query=18.4669784,-69.9267016", "streetview": "https://www.google.com/maps/@?api=1&map_action=pano&viewpoint=18.4669784,-69.9267016"}}, {"type": "Feature", "geometry": {"type": "Point", "coordinates": [-69.925242, 18.4712378]}, "properties": {"id": 3, "name": "TotalEnergies Tiradentes", "address": "Av. Tiradentes 49", "phone": "(829) 745-3201", "hours": "Abierto 24 horas", "zone": "Dentro del polígono", "inside": true, "distKm": 0.51, "brand": "TotalEnergies", "open24h": true, "maps": "https://www.google.com/maps/search/?api=1&query=18.4712378,-69.925242", "streetview": "https://www.google.com/maps/@?api=1&map_action=pano&viewpoint=18.4712378,-69.925242"}}, {"type": "Feature", "geometry": {"type": "Point", "coordinates": [-69.9339112, 18.4714273]}, "properties": {"id": 4, "name": "Next • Lincoln", "address": "Av. Abraham Lincoln 504", "phone": null, "hours": "Abierto 24 horas", "zone": "Dentro del polígono", "inside": true, "distKm": 0.54, "brand": "Next", "open24h": true, "maps": "https://www.google.com/maps/search/?api=1&query=18.4714273,-69.9339112", "streetview": "https://www.google.com/maps/@?api=1&map_action=pano&viewpoint=18.4714273,-69.9339112"}}, {"type": "Feature", "geometry": {"type": "Point", "coordinates": [-69.9374881, 18.4642862]}, "properties": {"id": 5, "name": "TotalEnergies On The Boulevard", "address": "Av. Winston Churchill 36", "phone": "(809) 567-0441", "hours": "Cierra 10:00 p.m.", "zone": "Dentro del polígono", "inside": true, "distKm": 0.99, "brand": "TotalEnergies", "open24h": false, "maps": "https://www.google.com/maps/search/?api=1&query=18.4642862,-69.9374881", "streetview": "https://www.google.com/maps/@?api=1&map_action=pano&viewpoint=18.4642862,-69.9374881"}}, {"type": "Feature", "geometry": {"type": "Point", "coordinates": [-69.9324099, 18.4583124]}, "properties": {"id": 6, "name": "Axxon • Bella Vista", "address": "Av. Enrique Jiménez Moya (F359+82G)", "phone": "(809) 532-0880", "hours": "Abierto 24 horas", "zone": "Borde / adyacente", "inside": false, "distKm": 1.23, "brand": "Axxon", "open24h": true, "maps": "https://www.google.com/maps/search/?api=1&query=18.4583124,-69.9324099", "streetview": "https://www.google.com/maps/@?api=1&map_action=pano&viewpoint=18.4583124,-69.9324099"}}, {"type": "Feature", "geometry": {"type": "Point", "coordinates": [-69.9403312, 18.4642231]}, "properties": {"id": 7, "name": "Tropigás Piantini", "address": "C. Paseo de los Locutores 53", "phone": null, "hours": "Abierto 24 horas", "zone": "Dentro del polígono", "inside": true, "distKm": 1.26, "brand": "Tropigás", "open24h": true, "maps": "https://www.google.com/maps/search/?api=1&query=18.4642231,-69.9403312", "streetview": "https://www.google.com/maps/@?api=1&map_action=pano&viewpoint=18.4642231,-69.9403312"}}, {"type": "Feature", "geometry": {"type": "Point", "coordinates": [-69.9361986, 18.4595167]}, "properties": {"id": 8, "name": "TotalEnergies Millennium", "address": "Av. Rómulo Betancourt 267", "phone": "(809) 563-5058", "hours": "Cierra 12:00 a.m.", "zone": "Dentro del polígono", "inside": true, "distKm": 1.27, "brand": "TotalEnergies", "open24h": false, "maps": "https://www.google.com/maps/search/?api=1&query=18.4595167,-69.9361986", "streetview": "https://www.google.com/maps/@?api=1&map_action=pano&viewpoint=18.4595167,-69.9361986"}}, {"type": "Feature", "geometry": {"type": "Point", "coordinates": [-69.9422371, 18.4743253]}, "properties": {"id": 9, "name": "TotalEnergies Paraíso", "address": "Av. Winston Churchill 80", "phone": "(809) 567-7737", "hours": "Abierto 24 horas", "zone": "Dentro del polígono", "inside": true, "distKm": 1.47, "brand": "TotalEnergies", "open24h": true, "maps": "https://www.google.com/maps/search/?api=1&query=18.4743253,-69.9422371", "streetview": "https://www.google.com/maps/@?api=1&map_action=pano&viewpoint=18.4743253,-69.9422371"}}, {"type": "Feature", "geometry": {"type": "Point", "coordinates": [-69.928787, 18.4830354]}, "properties": {"id": 10, "name": "TotalEnergies La Kennedy", "address": "Av. John F. Kennedy", "phone": "(809) 227-4300", "hours": "Abierto 24 horas", "zone": "Borde / adyacente", "inside": false, "distKm": 1.56, "brand": "TotalEnergies", "open24h": true, "maps": "https://www.google.com/maps/search/?api=1&query=18.4830354,-69.928787", "streetview": "https://www.google.com/maps/@?api=1&map_action=pano&viewpoint=18.4830354,-69.928787"}}, {"type": "Feature", "geometry": {"type": "Point", "coordinates": [-69.9253491, 18.4554105]}, "properties": {"id": 11, "name": "Next (Bernardo Correa y Cidrón)", "address": "Av. Dr. Bernardo Correa y Cidrón (F34F+5V6)", "phone": null, "hours": "Cierra 11:55 p.m.", "zone": "Borde / adyacente", "inside": false, "distKm": 1.57, "brand": "Next", "open24h": false, "maps": "https://www.google.com/maps/search/?api=1&query=18.4554105,-69.9253491", "streetview": "https://www.google.com/maps/@?api=1&map_action=pano&viewpoint=18.4554105,-69.9253491"}}, {"type": "Feature", "geometry": {"type": "Point", "coordinates": [-69.930806, 18.4834704]}, "properties": {"id": 12, "name": "TotalEnergies Mega", "address": "Av. Lope de Vega Esq.", "phone": "(809) 567-2870", "hours": "Abierto 24 horas", "zone": "Borde / adyacente", "inside": false, "distKm": 1.62, "brand": "TotalEnergies", "open24h": true, "maps": "https://www.google.com/maps/search/?api=1&query=18.4834704,-69.930806", "streetview": "https://www.google.com/maps/@?api=1&map_action=pano&viewpoint=18.4834704,-69.930806"}}, {"type": "Feature", "geometry": {"type": "Point", "coordinates": [-69.9288259, 18.4838272]}, "properties": {"id": 13, "name": "TotalEnergies San Martín", "address": "Av. San Martín esq. Tiradentes", "phone": "(809) 227-4300", "hours": "Cierra 10:00 p.m.", "zone": "Borde / adyacente", "inside": false, "distKm": 1.65, "brand": "TotalEnergies", "open24h": false, "maps": "https://www.google.com/maps/search/?api=1&query=18.4838272,-69.9288259", "streetview": "https://www.google.com/maps/@?api=1&map_action=pano&viewpoint=18.4838272,-69.9288259"}}, {"type": "Feature", "geometry": {"type": "Point", "coordinates": [-69.9430734, 18.4597308]}, "properties": {"id": 14, "name": "VP Racing Store Santo Domingo", "address": "C. Emile Boyrie de Moya", "phone": "(809) 692-5745", "hours": "Cierra 5:00 p.m.", "zone": "Dentro del polígono", "inside": true, "distKm": 1.77, "brand": "VP Racing", "open24h": false, "maps": "https://www.google.com/maps/search/?api=1&query=18.4597308,-69.9430734", "streetview": "https://www.google.com/maps/@?api=1&map_action=pano&viewpoint=18.4597308,-69.9430734"}}, {"type": "Feature", "geometry": {"type": "Point", "coordinates": [-69.9461111, 18.4658333]}, "properties": {"id": 15, "name": "Óptimo Gas", "address": "C. Rafael Augusto Sánchez 114", "phone": "(849) 876-5977", "hours": "Cierra 11:00 p.m.", "zone": "Borde / adyacente", "inside": false, "distKm": 1.79, "brand": "Óptimo Gas", "open24h": false, "maps": "https://www.google.com/maps/search/?api=1&query=18.4658333,-69.9461111", "streetview": "https://www.google.com/maps/@?api=1&map_action=pano&viewpoint=18.4658333,-69.9461111"}}, {"type": "Feature", "geometry": {"type": "Point", "coordinates": [-69.9121696, 18.4700892]}, "properties": {"id": 16, "name": "Texaco (Av. Máximo Gómez / F3CQ+24P)", "address": "F3CQ+24P, Santo Domingo", "phone": "(809) 682-6899", "hours": "Cierra 12:00 a.m.", "zone": "Borde / adyacente", "inside": false, "distKm": 1.83, "brand": "Texaco", "open24h": false, "maps": "https://www.google.com/maps/search/?api=1&query=18.4700892,-69.9121696", "streetview": "https://www.google.com/maps/@?api=1&map_action=pano&viewpoint=18.4700892,-69.9121696"}}, {"type": "Feature", "geometry": {"type": "Point", "coordinates": [-69.9437936, 18.4595286]}, "properties": {"id": 17, "name": "Trovasa Hand Wash & Store", "address": "Av. 27 de Febrero 349", "phone": "(809) 566-4313", "hours": "Cierra 9:30 p.m.", "zone": "Dentro del polígono", "inside": true, "distKm": 1.84, "brand": "Trovasa", "open24h": false, "maps": "https://www.google.com/maps/search/?api=1&query=18.4595286,-69.9437936", "streetview": "https://www.google.com/maps/@?api=1&map_action=pano&viewpoint=18.4595286,-69.9437936"}}, {"type": "Feature", "geometry": {"type": "Point", "coordinates": [-69.943707, 18.459345]}, "properties": {"id": 18, "name": "Shell (27 de Febrero)", "address": "Av. 27 de Febrero 349", "phone": "(809) 542-4752", "hours": "Cierra 8:00 p.m.", "zone": "Dentro del polígono", "inside": true, "distKm": 1.85, "brand": "Shell", "open24h": false, "maps": "https://www.google.com/maps/search/?api=1&query=18.459345,-69.943707", "streetview": "https://www.google.com/maps/@?api=1&map_action=pano&viewpoint=18.459345,-69.943707"}}, {"type": "Feature", "geometry": {"type": "Point", "coordinates": [-69.9445413, 18.4583289]}, "properties": {"id": 19, "name": "Sigma 27 de Febrero", "address": "Av. 27 de Febrero", "phone": "(809) 530-8531", "hours": "Cierra 12:00 a.m.", "zone": "Borde / adyacente", "inside": false, "distKm": 1.98, "brand": "Sigma", "open24h": false, "maps": "https://www.google.com/maps/search/?api=1&query=18.4583289,-69.9445413", "streetview": "https://www.google.com/maps/@?api=1&map_action=pano&viewpoint=18.4583289,-69.9445413"}}, {"type": "Feature", "geometry": {"type": "Point", "coordinates": [-69.9103269, 18.4648312]}, "properties": {"id": 20, "name": "TotalEnergies Quisqueya", "address": "Av. Máximo Gómez 2", "phone": "(809) 686-7204", "hours": "Cierra 11:00 p.m.", "zone": "Borde / adyacente", "inside": false, "distKm": 2.08, "brand": "TotalEnergies", "open24h": false, "maps": "https://www.google.com/maps/search/?api=1&query=18.4648312,-69.9103269", "streetview": "https://www.google.com/maps/@?api=1&map_action=pano&viewpoint=18.4648312,-69.9103269"}}, {"type": "Feature", "geometry": {"type": "Polygon", "coordinates": [[[-69.9432, 18.4838], [-69.9112, 18.4815], [-69.9112, 18.4622], [-69.9442, 18.4588], [-69.9432, 18.4838]]]}, "properties": {"name": "Polígono Central (approximate)"}}]}